TDRS 3                  
1 19548U 88091B   23312.46221440 -.00000291  00000+0  00000+0 0  9998
2 19548  13.3357 347.4889 0038849 330.1078 207.1793  1.00266326115820
FLTSATCOM 8 (USA 46)    
1 20253U 89077A   23312.36212481 -.00000357  00000+0  00000+0 0  9995
2 20253  12.7051 356.9244 0004220 238.7152  67.8702  1.00274072251055
SKYNET 4C               
1 20776U 90079A   23311.76231108  .00000134  00000+0  00000+0 0  9991
2 20776  13.6488 356.3457 0004489 250.3747 107.8470  1.00269583121397
TDRS 5                  
1 21639U 91054B   23312.44107851  .00000095  00000+0  00000+0 0  9993
2 21639  14.1913   0.7499 0023259 355.4779  42.6389  1.00273025118161
TDRS 6                  
1 22314U 93003B   23312.40635910 -.00000286  00000+0  00000+0 0  9991
2 22314  14.1567   4.0398 0009983 168.2202 335.2317  1.00265052112832
UFO 2 (USA 95)          
1 22787U 93056A   23311.83297351  .00000135  00000+0  00000+0 0  9994
2 22787  11.5952   8.4967 0005252 214.7311 152.1698  1.00276020109110
USA 99 (MILSTAR-1 1)    
1 22988U 94009A   23311.27355712 -.00000186  00000+0  00000+0 0  9997
2 22988  16.1597  37.7824 0002788 207.2544 169.6889  1.00274530 23419
UFO 4 (USA 108)         
1 23467U 95003A   23311.58800060 -.00000012  00000+0  00000+0 0  9998
2 23467   9.7845  16.1511 0005183 183.8388 230.5007  1.00273636105391
AMSC 1                  
1 23553U 95019A   23312.19790549 -.00000082  00000+0  00000+0 0  9996
2 23553  12.4218  22.8432 0006358 207.9081 140.1717  1.00272152104622
TDRS 7                  
1 23613U 95035B   23311.62934182 -.00000191  00000+0  00000+0 0  9992
2 23613  13.7760 354.8048 0023476  69.1469 293.7489  1.00266609103602
USA 115 (MILSTAR-1 2)   
1 23712U 95060A   23312.46732229 -.00000009  00000+0  00000+0 0  9999
2 23712  13.7189  10.6029 0004102 232.6440 212.3904  1.00274431 22100
INMARSAT 3-F1           
1 23839U 96020A   23312.49904373 -.00000227  00000+0  00000+0 0  9992
2 23839   8.5990  54.5821 0007604 156.7457 167.4589  1.00004129101037
INMARSAT 3-F2           
1 24307U 96053A   23310.94215928  .00000144  00000+0  00000+0 0  9995
2 24307   7.6732  62.8936 0005154 136.1548 219.3393  0.99988900 99381
INMARSAT 3-F3           
1 24674U 96070A   23311.27957551 -.00000199  00000+0  00000+0 0  9994
2 24674   8.2348  58.0068 0007321 163.4182 207.1517  0.99986071 98385
GALAXY 25 (G-25)        
1 24812U 97026A   23311.61550521 -.00000079  00000+0  00000+0 0  9991
2 24812   4.9701  78.4500 0005323  88.4040 116.3059  0.99037932 96777
INTELSAT 5 (IS-5)       
1 24916U 97046A   23311.58443500 -.00000050  00000+0  00000+0 0  9991
2 24916   8.3184  57.2734 0007161 180.7492 185.0740  1.00274162 96061
AMC-3 (GE-3)            
1 24936U 97050A   23312.49725260 -.00000245  00000+0  00000+0 0  9991
2 24936   5.7953  74.4682 0003320 176.7231 263.2610  1.00271713 95906
USA 134                 
1 25019U 97065A   23312.47049062 -.00000048  00000+0  00000+0 0  9998
2 25019  11.6466  28.2839 0002482 236.4101 199.8633  1.00270683 22064
INMARSAT 3-F5           
1 25153U 98006B   23312.39395512 -.00000275  00000+0  00000+0 0  9990
2 25153   7.5411  61.9364 0005208 174.3744 258.8727  1.00271057 94342
ASTRA 2A                
1 25462U 98050A   23312.41177958  .00000083  00000+0  00000+0 0  9993
2 25462   4.6819  79.9610 0003213 153.7934  19.0620  1.00273689 92197
SKYNET 4E               
1 25639U 99009B   23311.29771528 -.00000025  00000+0  00000+0 0  9999
2 25639  11.5111  14.2415 0002883 204.0389 293.9228  1.00270688 41834
ABS-6                   
1 25924U 99053A   23312.50528024 -.00000107  00000+0  00000+0 0  9992
2 25924   0.0138 157.7269 0002531  76.7633 153.8650  1.00271349 88298
UFO 10 (USA 146)        
1 25967U 99063A   23312.03766903 -.00000177  00000+0  00000+0 0  9995
2 25967   9.3531  31.5611 0005691 194.6706 171.3755  1.00266110 87790
GALAXY 11 (G-11)        
1 26038U 99071A   23312.46752866  .00000047  00000+0  00000+0 0  9999
2 26038   4.2983  81.9078 0007440 154.8455 161.1274  1.00065321 87530
USA 148                 
1 26052U 00001A   23312.52547841  .00000052  00000+0  00000+0 0  9998
2 26052  10.3510  39.2127 0003031 212.8927 164.8526  1.00269374 22085
ASIASTAR                
1 26107U 00016A   23311.84820248 -.00000320  00000+0  00000+0 0  9993
2 26107   6.8772  67.5962 0005154 168.5633 220.9916  1.00269351 86606
USA 149 (DSP 20)        
1 26356U 00024A   23311.46698104  .00000105  00000+0  00000+0 0  9990
2 26356  12.4528  18.2314 0000770  61.9343 329.0488  1.00260728 23369
TDRS 8                  
1 26388U 00034A   23312.47720456  .00000109  00000+0  00000+0 0  9998
2 26388  11.1819  38.9475 0004358 202.4812 170.0528  1.00275306 85634
INTELSAT 9 (IS-9)       
1 26451U 00043A   23311.75839094 -.00000275  00000+0  00000+0 0  9993
2 26451   8.3030  57.4632 0004303 184.3986  27.8839  1.00273178 85290
NSS-11 (AAP-1)          
1 26554U 00059A   23312.52165351  .00000038  00000+0  00000+0 0  9994
2 26554   0.0173 340.9504 0002678 260.5849 169.7457  1.00272543 84631
USA 153                 
1 26575U 00065A   23311.21802372 -.00000313  00000+0  00000+0 0  9997
2 26575   9.9676  42.5228 0002845 202.7795  13.8721  1.00272460 23377
AMC-6 (GE-6)            
1 26580U 00067A   23312.45308071  .00000117  00000+0  00000+0 0  9990
2 26580   0.0237 299.1001 0003090 304.1400 188.2830  1.00273798 84448
INTELSAT 1R (IS-1R)     
1 26608U 00072A   23312.50435546 -.00000123  00000+0  00000+0 0  9999
2 26608   5.6890  75.1037 0003578 221.4579  89.5663  1.00271944 84117
ANIK F1                 
1 26624U 00076A   23312.47827656 -.00000048  00000+0  00000+0 0  9990
2 26624   2.7298  86.3974 0005784 107.6841 276.3514  1.00272313 84186
USA 157 (MILSTAR-2 2)   
1 26715U 01009A   23312.46795830  .00000024  00000+0  00000+0 0  9998
2 26715  10.5147  24.9360 0003159 226.2493 200.4883  1.00276135 22106
INTELSAT 10 (IS-10)     
1 26766U 01019A   23312.52266633  .00000049  00000+0  00000+0 0  9993
2 26766   6.7903  68.7683 0004182 170.3555 174.2932  1.00271523 82383
INTELSAT 901 (IS-901)   
1 26824U 01024A   23312.39489718 -.00000190  00000+0  00000+0 0  9998
2 26824   0.0197  85.8091 0000677 141.7141 294.4541  1.00266619 82045
ASTRA 2C                
1 26853U 01025A   23312.49725220 -.00000244  00000+0  00000+0 0  9993
2 26853   5.8175  74.2859 0002827 162.7620 276.9375  1.00272682 82030
USA 159 (DSP 21)        
1 26880U 01033A   23311.29815201 -.00000287  00000+0  00000+0 0  9995
2 26880  11.8873  22.6731 0000587 165.7340 275.9032  1.00280185 23414
INTELSAT 902 (IS-902)   
1 26900U 01039A   23312.39037199 -.00000267  00000+0  00000+0 0  9996
2 26900   3.6924  83.2058 0005203 182.1049 232.4627  1.00272580 81228
USA 164 (MILSTAR-2 3)   
1 27168U 02001A   23310.92966322  .00000107  00000+0  00000+0 0  9991
2 27168  10.0597  26.8685 0098561 355.4892  17.1305  1.00270537 23409
INTELSAT 904 (IS-904)   
1 27380U 02007A   23312.25122271 -.00000199  00000+0  00000+0 0  9990
2 27380   4.5151  80.3396 0002836 146.9411 240.8617  1.00273120 79541
NSS-7                   
1 27414U 02019A   23312.18938468 -.00000144  00000+0  00000+0 0  9996
2 27414   7.0929  66.8786 0002605 170.4880 217.9550  1.00271393 79011
DIRECTV 5 (TEMPO 1)     
1 27426U 02023A   23312.47712424 -.00000042  00000+0  00000+0 0  9995
2 27426   2.4254  87.0695 0003219 136.9589 245.0520  1.00271964 78767
INTELSAT 905 (IS-905)   
1 27438U 02027A   23311.27063505 -.00000173  00000+0  00000+0 0  9993
2 27438   4.3368  81.0288 0002625 143.5823 254.5599  1.00272207 41812
GALAXY 3C (G-3C)        
1 27445U 02030A   23312.48220101 -.00000139  00000+0  00000+0 0  9998
2 27445   1.2768  89.2069 0002186 165.4716 231.5074  1.00271708 78406
INTELSAT 906 (IS-906)   
1 27513U 02041A   23311.74285616  .00000027  00000+0  00000+0 0  9991
2 27513   3.3635  84.5143 0005150 162.8037 130.9382  1.00271202 77424
TDRS 10                 
1 27566U 02055A   23311.46162889  .00000100  00000+0  00000+0 0  9991
2 27566   9.1430  46.8954 0002353 316.9086  37.6839  1.00274839 76673
NIMIQ 2                 
1 27632U 02062A   23311.46580427 -.00000055  00000+0  00000+0 0  9995
2 27632   7.1986  66.3690 0006747 161.9672 236.6223  1.00274457 34639
USA 167                 
1 27691U 03008A   23312.46866375  .00000066  00000+0  00000+0 0  9992
2 27691   9.0509  51.1451 0002573 203.0561 191.9421  1.00276599 22089
USA 169 (MILSTAR-2 4)   
1 27711U 03012A   23312.49893287 -.00000181  00000+0  00000+0 0  9994
2 27711  10.8916  36.8995 0096230 356.1158 346.1938  1.00273842 22098
ASIASAT 4               
1 27718U 03014A   23312.17794947 -.00000208  00000+0  00000+0 0  9991
2 27718   2.2552  87.6615 0002745 140.9464  30.1536  1.00271567 75371
HELLAS-SAT 2            
1 27811U 03020A   23311.61054492 -.00000069  00000+0  00000+0 0  9999
2 27811   4.9576  78.9954 0008105 155.7881  21.6083  1.00271872 74787
THURAYA-2               
1 27825U 03026A   23312.30813302  .00000140  00000+0  00000+0 0  9999
2 27825   7.4026  34.4556 0002513 187.4082 340.3117  1.00270085 74792
OPTUS C1                
1 27831U 03028B   23312.50243747 -.00000134  00000+0  00000+0 0  9994
2 27831   4.4806  80.7073 0006029 150.4150 152.9621  1.00271205 74783
GALAXY 23 (G-23)        
1 27854U 03034A   23312.46769017  .00000026  00000+0  00000+0 0  9993
2 27854   0.7292  92.0045 0002682 131.2045 231.6914  1.00272141 79002
USA 170                 
1 27875U 03040A   23312.17838470 -.00000213  00000+0  00000+0 0  9990
2 27875   8.4598  56.1866 0003932 153.1214 226.3555  1.00476592 22085
GALAXY 13 (HORIZONS-1)  
1 27954U 03044A   23312.45925959  .00000142  00000+0  00000+0 0  9992
2 27954   0.0322 116.7028 0001348 182.7732 128.0786  1.00046398 73617
YAMAL 202               
1 28089U 03053A   23311.78815684 -.00000066  00000+0  00000+0 0  9996
2 28089   3.9194  82.2900 0005631 135.6905 276.0164  1.00271535 73134
UFO 11 (USA 174)        
1 28117U 03057A   23310.80674395 -.00000090  00000+0  00000+0 0  9993
2 28117   7.7213  37.2776 0003061 167.0316 206.9408  1.00272752 72865
